MONITOR-4 (RS57S)       
1 57182U 23091S   25177.07727549  .00005591  00000+0  26723-3 0  9993
2 57182  97.5591 234.0591 0012491 267.1009  92.8796 15.19357466110074
MONITOR-2 (RS39S)       
1 57184U 23091U   25177.05977981  .00002872  00000+0  15944-3 0  9992
2 57184  97.5599 232.6113 0010720 267.0403  92.9602 15.14506978109971
SVYATOBOR 1 (RS60S)     
1 57187U 23091X   25177.11733260  .00005180  00000+0  24961-3 0  9996
2 57187  97.5602 234.8445 0009525 255.8126 104.2050 15.19142091110129
VIZARD-METEO (RS38S)    
1 57189U 23091Z   25177.08101078  .00007644  00000+0  32016-3 0  9997
2 57189  97.5590 236.8068 0008112 245.3565 114.6827 15.23802585110259
NANOZOND 1 (RS49S)      
1 57190U 23091AA  25177.06645225  .00020206  00000+0  57064-3 0  9993
2 57190  97.5545 241.0051 0005684 228.6850 131.3904 15.36386478110549
POLYTECH-UNIVERSE 3 (R*)
1 57191U 23091AB  25177.05888720  .00003015  00000+0  16644-3 0  9990
2 57191  97.5569 232.1526 0015481 285.9925  73.9601 15.14617368109969
UTMN 2 (RS27S)          
1 57203U 23091AP  25177.07549849  .00006360  00000+0  28137-3 0  9998
2 57203  97.5591 236.0427 0008599 248.6027 111.4291 15.22007251110207
ARCCUBE 1 (RS25S)       
1 57205U 23091AR  25177.09112592  .00039404  00000+0  78517-3 0  9995
2 57205  97.5456 243.3936 0005376 215.9471 144.1417 15.46776856110725
KUZGTU 1 (RS47S)        
1 57217U 23091AV  25177.20088654  .00006079  00000+0  28189-3 0  9994
2 57217  97.5576 234.5343 0011912 265.0553  94.9322 15.20375787110126
SONATE-2                
1 59112U 24043Q   25177.10691301  .00012220  00000+0  34764-3 0  9997
2 59112  97.5157 308.6225 0011791  60.8100 299.4322 15.36218271 72875
MESAT1                  
1 60209U 24125G   25177.05248508  .00013569  00000+0  37924-3 0  9996
2 60209  97.2770  28.4903 0020181  80.2945 280.0578 15.36597715 54487
OOV-CUBE (TUBSAT-30)    
1 60240U 24128F   25176.99198502  .00001671  00000+0  14522-3 0  9994
2 60240  61.9958  25.3583 0053292  58.1397 302.4863 15.00336298 52620
COLIBRI-S (RS67S)       
1 61746U 24199M   25177.05607752  .00009607  00000+0  30361-3 0  9990
2 61746  97.3547  45.6190 0013752 120.9767 239.2829 15.32926620 82614
HORS 3 (RS81S)          
1 61753U 24199U   25177.09809817  .00012042  00000+0  36314-3 0  9999
2 61753  97.3513  45.7761 0012023 127.0048 233.2297 15.34376088 82634
HORS 4 (RS82S)          
1 61754U 24199V   25177.09282856  .00012538  00000+0  36896-3 0  9993
2 61754  97.3510  45.9261 0012156 126.7756 233.4605 15.35137602 82642
HORIZON (RS59S)         
1 61757U 24199Y   25177.11039961  .00018820  00000+0  49461-3 0  9998
2 61757  97.3532  46.5875 0012503 115.8417 244.4119 15.38565918 82680
SIT-2086                
1 61764U 24199AF  25177.09524942  .00008224  00000+0  23468-3 0  9997
2 61764  97.3515  46.2374 0010147 120.7869 239.4375 15.36247672 79505
MORDOVIA-IOT (RS50S)    
1 61765U 24199AG  25177.05646619  .00027562  00000+0  63098-3 0  9999
2 61765  97.3509  47.2401 0011763 111.9424 248.3075 15.42689559 79579
RUZAEVKA 390 (RS44S)    
1 61766U 24199AH  25177.08474329  .00022712  00000+0  54602-3 0  9993
2 61766  97.3510  47.0473 0011852 111.8192 248.4317 15.41254870 79561
HYPERVIEW 1G (RS66S)    
1 61772U 24199AP  25177.09528732  .00015356  00000+0  43792-3 0  9993
2 61772  97.3511  45.9235 0015079 129.5578 230.7001 15.36035776 79493
ALTAIR (RS65S)          
1 61779U 24199AW  25177.09639082  .00005180  00000+0  18506-3 0  9990
2 61779  97.3535  44.7594 0016774 134.4767 225.7848 15.29144050 82562
ASRTU-1 (AO-123)        
1 61781U 24199AY  25177.07784732  .00004615  00000+0  16822-3 0  9995
2 61781  97.3526  44.6148 0017049 135.1138 225.1484 15.28542368 79407
TUSUR GO (RS78S)        
1 61782U 24199AZ  25177.05975040  .00018352  00000+0  50143-3 0  9995
2 61782  97.3504  45.9665 0015377 128.8395 231.4225 15.37326428 79497
SAMSAT-IONOSPHERE (RS7*)
1 61784U 24199BB  25177.07948427  .00012547  00000+0  38340-3 0  9993
2 61784  97.3518  45.5065 0016135 131.6344 228.6284 15.33889155 82611
RTU MIREA 1 (RS51S)     
1 61785U 24199BC  25177.11174830  .00013759  00000+0  41394-3 0  9997
2 61785  97.3516  45.6125 0015902 130.0910 230.1729 15.34364422 79479
HADES-R                 
1 62690U 25009CK  25176.50623186  .00020621  00000+0  71009-3 0  9991
2 62690  97.4097 257.2585 0002979  70.2970 289.8592 15.30063269 24584
HADES-ICM               
1 63492U 25052BN  25175.93340551  .00015845  00000+0  66642-3 0  9997
2 63492  97.4309  69.8739 0010543 331.3092  28.7563 15.23434283 15590
