OBJECT_NAME,OBJECT_ID,EPOCH,MEAN_MOTION,ECCENTRICITY,INCLINATION,RA_OF_ASC_NODE,ARG_OF_PERICENTER,MEAN_ANOMALY,EPHEMERIS_TYPE,CLASSIFICATION_TYPE,NORAD_CAT_ID,ELEMENT_SET_NO,REV_AT_EPOCH,BSTAR,MEAN_MOTION_DOT,MEAN_MOTION_DDOT
MONITOR-4 (RS57S),2023-091S,2025-06-26T01:51:16.602336,15.19357466,.0012491,97.5591,234.0591,267.1009,92.8796,0,U,57182,999,11007,.26723E-3,.5591E-4,0
MONITOR-2 (RS39S),2023-091U,2025-06-26T01:26:04.975584,15.14506978,.001072,97.5599,232.6113,267.0403,92.9602,0,U,57184,999,10997,.15944E-3,.2872E-4,0
SVYATOBOR 1 (RS60S),2023-091X,2025-06-26T02:48:57.536640,15.19142091,.0009525,97.5602,234.8445,255.8126,104.2050,0,U,57187,999,11012,.24961E-3,.518E-4,0
VIZARD-METEO (RS38S),2023-091Z,2025-06-26T01:56:39.331392,15.23802585,.0008112,97.5590,236.8068,245.3565,114.6827,0,U,57189,999,11025,.32016E-3,.7644E-4,0
NANOZOND 1 (RS49S),2023-091AA,2025-06-26T01:35:41.474400,15.36386478,.0005684,97.5545,241.0051,228.6850,131.3904,0,U,57190,999,11054,.57064E-3,.20206E-3,0
POLYTECH-UNIVERSE 3 (RS46S),2023-091AB,2025-06-26T01:24:47.854080,15.14617368,.0015481,97.5569,232.1526,285.9925,73.9601,0,U,57191,999,10996,.16644E-3,.3015E-4,0
UTMN 2 (RS27S),2023-091AP,2025-06-26T01:48:43.069536,15.22007251,.0008599,97.5591,236.0427,248.6027,111.4291,0,U,57203,999,11020,.28137E-3,.636E-4,0
ARCCUBE 1 (RS25S),2023-091AR,2025-06-26T02:11:13.279488,15.46776856,.0005376,97.5456,243.3936,215.9471,144.1417,0,U,57205,999,11072,.78517E-3,.39404E-3,0
KUZGTU 1 (RS47S),2023-091AV,2025-06-26T04:49:16.597056,15.20375787,.0011912,97.5576,234.5343,265.0553,94.9322,0,U,57217,999,11012,.28189E-3,.6079E-4,0
SONATE-2,2024-043Q,2025-06-26T02:33:57.284064,15.36218271,.0011791,97.5157,308.6225,60.8100,299.4322,0,U,59112,999,7287,.34764E-3,.1222E-3,0
MESAT1,2024-125G,2025-06-26T01:15:34.710912,15.36597715,.0020181,97.2770,28.4903,80.2945,280.0578,0,U,60209,999,5448,.37924E-3,.13569E-3,0
OOV-CUBE (TUBSAT-30),2024-128F,2025-06-25T23:48:27.505728,15.00336298,.0053292,61.9958,25.3583,58.1397,302.4863,0,U,60240,999,5262,.14522E-3,.1671E-4,0
COLIBRI-S (RS67S),2024-199M,2025-06-26T01:20:45.097728,15.32926620,.0013752,97.3547,45.6190,120.9767,239.2829,0,U,61746,999,8261,.30361E-3,.9607E-4,0
HORS 3 (RS81S),2024-199U,2025-06-26T02:21:15.681888,15.34376088,.0012023,97.3513,45.7761,127.0048,233.2297,0,U,61753,999,8263,.36314E-3,.12042E-3,0
HORS 4 (RS82S),2024-199V,2025-06-26T02:13:40.387584,15.35137602,.0012156,97.3510,45.9261,126.7756,233.4605,0,U,61754,999,8264,.36896E-3,.12538E-3,0
HORIZON (RS59S),2024-199Y,2025-06-26T02:38:58.526304,15.38565918,.0012503,97.3532,46.5875,115.8417,244.4119,0,U,61757,999,8268,.49461E-3,.1882E-3,0
SIT-2086,2024-199AF,2025-06-26T02:17:09.549888,15.36247672,.0010147,97.3515,46.2374,120.7869,239.4375,0,U,61764,999,7950,.23468E-3,.8224E-4,0
MORDOVIA-IOT (RS50S),2024-199AG,2025-06-26T01:21:18.678816,15.42689559,.0011763,97.3509,47.2401,111.9424,248.3075,0,U,61765,999,7957,.63098E-3,.27562E-3,0
RUZAEVKA 390 (RS44S),2024-199AH,2025-06-26T02:02:01.820256,15.41254870,.0011852,97.3510,47.0473,111.8192,248.4317,0,U,61766,999,7956,.54602E-3,.22712E-3,0
HYPERVIEW 1G (RS66S),2024-199AP,2025-06-26T02:17:12.824448,15.36035776,.0015079,97.3511,45.9235,129.5578,230.7001,0,U,61772,999,7949,.43792E-3,.15356E-3,0
ALTAIR (RS65S),2024-199AW,2025-06-26T02:18:48.166848,15.29144050,.0016774,97.3535,44.7594,134.4767,225.7848,0,U,61779,999,8256,.18506E-3,.518E-4,0
ASRTU-1 (AO-123),2024-199AY,2025-06-26T01:52:06.008448,15.28542368,.0017049,97.3526,44.6148,135.1138,225.1484,0,U,61781,999,7940,.16822E-3,.4615E-4,0
TUSUR GO (RS78S),2024-199AZ,2025-06-26T01:26:02.434560,15.37326428,.0015377,97.3504,45.9665,128.8395,231.4225,0,U,61782,999,7949,.50143E-3,.18352E-3,0
SAMSAT-IONOSPHERE (RS75S),2024-199BB,2025-06-26T01:54:27.440928,15.33889155,.0016135,97.3518,45.5065,131.6344,228.6284,0,U,61784,999,8261,.3834E-3,.12547E-3,0
RTU MIREA 1 (RS51S),2024-199BC,2025-06-26T02:40:55.053120,15.34364422,.0015902,97.3516,45.6125,130.0910,230.1729,0,U,61785,999,7947,.41394E-3,.13759E-3,0
HADES-R,2025-009CK,2025-06-25T12:08:58.432704,15.30063269,.0002979,97.4097,257.2585,70.2970,289.8592,0,U,62690,999,2458,.71009E-3,.20621E-3,0
HADES-ICM,2025-052BN,2025-06-24T22:24:06.236064,15.23434283,.0010543,97.4309,69.8739,331.3092,28.7563,0,U,63492,999,1559,.66642E-3,.15845E-3,0
